1 27944U 03042F   23292.55391571  .00000269  00000-0  61526-4 0  9990
2 27944  98.2814  66.3383 0012167 185.8312 174.2750 14.63402825 71238
1 27944U 03042F   23292.82741407  .00000255  00000-0  58743-4 0  9999
2 27944  98.2814  66.6129 0012185 184.9579 175.1504 14.63402929 71359
1 27944U 03042F   23292.89578864  .00000257  00000-0  59194-4 0  9994
2 27944  98.2814  66.6816 0012190 184.7370 175.3718 14.63402976 71288
1 27944U 03042F   23293.16928701  .00000241  00000-0  56089-4 0  9997
2 27944  98.2814  66.9562 0012208 183.8828 176.2281 14.63402989 71400
1 27944U 03042F   23293.51115987  .00000237  00000-0  55200-4 0  9999
2 27944  98.2815  67.2996 0012233 182.8043 177.3092 14.63403162 71453
1 27944U 03042F   23293.57953444  .00000231  00000-0  54160-4 0  9991
2 27944  98.2815  67.3682 0012238 182.5776 177.5364 14.63403177 71383
1 27944U 03042F   23293.85303270  .00000224  00000-0  52746-4 0  9998
2 27944  98.2815  67.6429 0012258 181.7219 178.3943 14.63403303 71507
1 27944U 03042F   23293.92140726  .00000224  00000-0  52754-4 0  9990
2 27944  98.2815  67.7116 0012263 181.5096 178.6071 14.63403335 71430
1 27944U 03042F   23294.05815636  .00000227  00000-0  53398-4 0  9992
2 27944  98.2815  67.8489 0012271 181.0788 179.0390 14.63403415 71535
1 27944U 03042F   23294.46840367  .00000215  00000-0  51093-4 0  9993
2 27944  98.2815  68.2608 0012299 179.8008 180.3200 14.63403562 71597
1 27944U 03042F   23294.60515276  .00000212  00000-0  50352-4 0  9991
2 27944  98.2815  68.3982 0012309 179.3652 180.7568 14.63403618 71532
1 27944U 03042F   23294.87865089  .00000207  00000-0  49395-4 0  9999
2 27944  98.2816  68.6728 0012329 178.5062 181.6179 14.63403760 71651
1 27944U 03042F   23294.94702542  .00000207  00000-0  49454-4 0  9997
2 27944  98.2816  68.7415 0012333 178.2915 181.8331 14.63403794 71585
1 27944U 03042F   23295.15214905  .00000202  00000-0  48524-4 0  9994
2 27944  98.2816  68.9475 0012346 177.6424 182.4838 14.63403865 71695
1 27944U 03042F   23295.49402165  .00000192  00000-0  46492-4 0  9998
2 27944  98.2816  69.2908 0012370 176.5722 183.5567 14.63403988 71749
1 27944U 03042F   23295.63077071  .00000185  00000-0  45259-4 0  9990
2 27944  98.2817  69.4281 0012378 176.1335 183.9965 14.63404032 71680
1 27944U 03042F   23295.83589420  .00000208  00000-0  49620-4 0  9990
2 27944  98.2817  69.6341 0012392 175.4989 184.6327 14.63404301 71793
1 27944U 03042F   23295.90426871  .00000205  00000-0  49126-4 0  9996
2 27944  98.2817  69.7028 0012397 175.2878 184.8443 14.63404329 71720
1 27944U 03042F   23296.17776677  .00000199  00000-0  47980-4 0  9996
2 27944  98.2817  69.9774 0012416 174.4388 185.6953 14.63404405 71842
1 27944U 03042F   23296.45126478  .00000195  00000-0  47196-4 0  9990
2 27944  98.2818  70.2521 0012435 173.5993 186.5370 14.63404542 71880
1 27944U 03042F   23296.86151177  .00000184  00000-0  44969-4 0  9992
2 27944  98.2819  70.6641 0012466 172.3203 187.8192 14.63404702 71944
1 27944U 03042F   23296.92988625  .00000184  00000-0  45041-4 0  9997
2 27944  98.2819  70.7328 0012470 172.1083 188.0317 14.63404735 71876
1 27944U 03042F   23297.13500972  .00000175  00000-0  43363-4 0  9991
2 27944  98.2819  70.9388 0012483 171.4753 188.6663 14.63404795 71982
1 27944U 03042F   23297.54525664  .00000159  00000-0  40208-4 0  9998
2 27944  98.2819  71.3508 0012509 170.2127 189.9320 14.63404901 72043
1 27944U 03042F   23297.61363112  .00000158  00000-0  40068-4 0  9997
2 27944  98.2820  71.4194 0012514 169.9993 190.1460 14.63404927 71977
1 27944U 03042F   23298.57087371  .00000136  00000-0  35777-4 0  9990
2 27944  98.2821  72.3808 0012578 167.0649 193.0877 14.63405257 72193
1 27944U 03042F   23298.91274600  .00000140  00000-0  36600-4 0  9992
2 27944  98.2822  72.7242 0012598 166.0377 194.1176 14.63405427 72169
1 27944U 03042F   23299.11786937  .00000135  00000-0  35612-4 0  9992
2 27944  98.2822  72.9302 0012612 165.4106 194.7462 14.63405479 72271
1 27944U 03042F   23299.52811602  .00000134  00000-0  35423-4 0  9994
2 27944  98.2823  73.3422 0012637 164.1765 195.9834 14.63405666 72335
1 27944U 03042F   23299.59649046  .00000135  00000-0  35551-4 0  9995
2 27944  98.2823  73.4109 0012641 163.9615 196.1989 14.63405697 72264
1 27944U 03042F   23299.80161377  .00000136  00000-0  35719-4 0  9992
2 27944  98.2824  73.6169 0012660 163.3333 196.8287 14.63405798 72377
1 27944U 03042F   23299.93836258  .00000149  00000-0  38275-4 0  9997
2 27944  98.2824  73.7542 0012667 162.9226 197.2404 14.63405932 72316
1 27944U 03042F   23300.14348582  .00000171  00000-0  42543-4 0  9999
2 27944  98.2824  73.9602 0012683 162.2963 197.8683 14.63406131 72423
1 27944U 03042F   23300.48535797  .00000146  00000-0  37630-4 0  9995
2 27944  98.2825  74.3036 0012709 161.2661 198.9010 14.63406158 72473
1 27944U 03042F   23300.62210681  .00000145  00000-0  37515-4 0  9994
2 27944  98.2825  74.4409 0012718 160.8388 199.3294 14.63406209 72419
1 27944U 03042F   23300.82723005  .00000148  00000-0  38073-4 0  9998
2 27944  98.2825  74.6469 0012733 160.2382 199.9316 14.63406310 72528
1 27944U 03042F   23300.89560447  .00000149  00000-0  38236-4 0  9996
2 27944  98.2826  74.7156 0012735 160.0280 200.1423 14.63406341 72450
1 27944U 03042F   23301.03235329  .00000149  00000-0  38259-4 0  9996
2 27944  98.2826  74.8530 0012744 159.6113 200.5600 14.63406382 72553
1 27944U 03042F   23301.44259978  .00000157  00000-0  39707-4 0  9995
2 27944  98.2826  75.2650 0012771 158.3901 201.7842 14.63406574 72613
1 27944U 03042F   23301.57934854  .00000162  00000-0  40727-4 0  9992
2 27944  98.2827  75.4024 0012777 157.9690 202.2063 14.63406674 72552
1 27944U 03042F   23301.85284609  .00000174  00000-0  43082-4 0  9999
2 27944  98.2827  75.6770 0012799 157.1467 203.0307 14.63406869 72679
1 27944U 03042F   23301.92122047  .00000175  00000-0  43189-4 0  9993
2 27944  98.2827  75.7457 0012803 156.9342 203.2436 14.63406899 72608
1 27944U 03042F   23302.12634364  .00000167  00000-0  41781-4 0  9993
2 27944  98.2827  75.9517 0012811 156.3251 203.8543 14.63406943 72716
1 27944U 03042F   23302.46821553  .00000181  00000-0  44524-4 0  9992
2 27944  98.2828  76.2951 0012833 155.3011 204.8808 14.63407179 72762
1 27944U 03042F   23302.60496426  .00000186  00000-0  45479-4 0  9990
2 27944  98.2828  76.4325 0012842 154.8814 205.3015 14.63407256 72700
1 27944U 03042F   23302.74171299  .00000192  00000-0  46651-4 0  9993
2 27944  98.2829  76.5698 0012851 154.4646 205.7193 14.63407349 72809
1 27944U 03042F   23302.94683607  .00000197  00000-0  47476-4 0  9997
2 27944  98.2829  76.7758 0012864 153.8505 206.3349 14.63407466 72753
1 27944U 03042F   23303.15195914  .00000207  00000-0  49547-4 0  9993
2 27944  98.2829  76.9819 0012875 153.2331 206.9538 14.63407589 72860
1 27944U 03042F   23303.49383095  .00000190  00000-0  46206-4 0  9999
2 27944  98.2830  77.3253 0012897 152.2100 207.9794 14.63407666 72913
1 27944U 03042F   23303.83570266  .00000195  00000-0  47174-4 0  9995
2 27944  98.2830  77.6686 0012921 151.1955 208.9963 14.63407863 72963
1 27944U 03042F   23303.90407699  .00000196  00000-0  47320-4 0  9996
2 27944  98.2830  77.7373 0012925 150.9915 209.2007 14.63407896 72895
1 27944U 03042F   23304.17757437  .00000191  00000-0  46308-4 0  9994
2 27944  98.2830  78.0120 0012941 150.1780 210.0161 14.63407959 73015
1 27944U 03042F   23304.51944601  .00000194  00000-0  47021-4 0  9999
2 27944  98.2831  78.3554 0012961 149.1666 211.0300 14.63408143 73060
1 27944U 03042F   23304.58782034  .00000191  00000-0  46434-4 0  9990
2 27944  98.2831  78.4241 0012964 148.9574 211.2396 14.63408162 72991
1 27944U 03042F   23304.79294330  .00000192  00000-0  46526-4 0  9993
2 27944  98.2832  78.6301 0012977 148.3514 211.8470 14.63408275 73101
1 27944U 03042F   23304.92969194  .00000184  00000-0  45006-4 0  9998
2 27944  98.2832  78.7675 0012985 147.9493 212.2501 14.63408298 73044
1 27944U 03042F   23305.20318918  .00000188  00000-0  45705-4 0  9992
2 27944  98.2832  79.0422 0012998 147.1312 213.0700 14.63408447 73163
1 27944U 03042F   23305.54506066  .00000170  00000-0  42261-4 0  9997
2 27944  98.2832  79.3856 0013020 146.1241 214.0795 14.63408535 73213
1 27944U 03042F   23305.61343495  .00000168  00000-0  42011-4 0  9990
2 27944  98.2832  79.4543 0013022 145.9209 214.2831 14.63408562 73145
1 27944U 03042F   23305.81855781  .00000176  00000-0  43504-4 0  9995
2 27944  98.2832  79.6604 0013036 145.3275 214.8779 14.63408688 73255
1 27944U 03042F   23305.88693209  .00000175  00000-0  43219-4 0  9999
2 27944  98.2832  79.7290 0013039 145.1270 215.0789 14.63408713 73188
1 27944U 03042F   23306.16042922  .00000182  00000-0  44669-4 0  9999
2 27944  98.2832  80.0038 0013057 144.3143 215.8934 14.63408882 73304
1 27944U 03042F   23306.50230061  .00000180  00000-0  44254-4 0  9998
2 27944  98.2833  80.3471 0013077 143.3084 216.9016 14.63409035 73353
1 27944U 03042F   23306.63904915  .00000178  00000-0  43878-4 0  9996
2 27944  98.2833  80.4845 0013088 142.8997 217.3112 14.63409098 73292
1 27944U 03042F   23306.84417197  .00000173  00000-0  42929-4 0  9991
2 27944  98.2833  80.6906 0013101 142.3051 217.9071 14.63409177 73405
1 27944U 03042F   23306.91254623  .00000174  00000-0  43060-4 0  9990
2 27944  98.2833  80.7592 0013104 142.1011 218.1115 14.63409207 73332
1 27944U 03042F   23307.18604325  .00000192  00000-0  46541-4 0  9995
2 27944  98.2833  81.0340 0013116 141.2910 218.9234 14.63409417 73454
1 27944U 03042F   23307.45954025  .00000194  00000-0  46929-4 0  9992
2 27944  98.2833  81.3087 0013128 140.4962 219.7199 14.63409562 73490
1 27944U 03042F   23307.59628869  .00000205  00000-0  48975-4 0  9997
2 27944  98.2834  81.4461 0013135 140.0906 220.1263 14.63409709 73435
1 27944U 03042F   23307.86978565  .00000199  00000-0  47896-4 0  9991
2 27944  98.2834  81.7208 0013153 139.2873 220.9314 14.63409832 73555
1 27944U 03042F   23307.93815988  .00000198  00000-0  47716-4 0  9998
2 27944  98.2834  81.7895 0013156 139.0855 221.1336 14.63409857 73484
